0 SCOUT B-1 DEB
1 08867U 76047C   13281.74976653  .00000099  00000-0  19506-3 0  2428
2 08867 099.2071 294.0367 0074365 194.5777 231.3330 13.56127522847733
0 SCOUT B-1 DEB
1 08867U 76047C   13287.29431877  .00000122  00000-0  22788-3 0  2443
2 08867 099.2062 299.2176 0074614 180.5245 300.1058 13.56129579848489
0 SCOUT B-1 DEB
1 08867U 76047C   13289.71482095  .00000118  00000-0  22225-3 0  2452
2 08867 099.2061 301.4789 0074702 174.3722 237.1441 13.56130621848815
0 SCOUT B-1 DEB
1 08867U 76047C   13292.31118955  .00000108  00000-0  20698-3 0  2465
2 08867 099.2062 303.9042 0074801 167.7748 312.7798 13.56131334849165
0 SCOUT B-1 DEB
1 08867U 76047C   13294.53151808  .00000121  00000-0  22576-3 0  2478
2 08867 099.2063 305.9783 0074870 162.1438 352.5599 13.56132128849467
